IRIDIUM 159             
1 43578U 18061K   23245.37655315  .00000313  00000+0  10485-3 0  9991
2 43578  86.3963 122.5415 0002075  87.4380 272.7054 14.34220874267353
IRIDIUM 180             
1 43922U 19002A   23245.51559180  .00000103  00000+0  29548-4 0  9997
2 43922  86.3931  59.3153 0001936  90.6658 269.4760 14.34217811243028
IRIDIUM 176             
1 43923U 19002B   23245.45898527  .00000466  00000+0  70014-4 0  9998
2 43923  86.6062  59.3742 0002359  88.7347 271.4141 14.72260322249360
IRIDIUM 168             
1 43924U 19002C   23245.50925545  .00000097  00000+0  27492-4 0  9998
2 43924  86.3934  59.3664 0002041  90.9414 269.2016 14.34219460242967
IRIDIUM 173             
1 43925U 19002D   23245.56634514  .00000100  00000+0  28583-4 0  9995
2 43925  86.3930  59.2731 0002093  92.8322 267.3113 14.34216939242958
IRIDIUM 169             
1 43926U 19002E   23245.53845788  .00000345  00000+0  10638-3 0  9992
2 43926  86.4174  90.9242 0005460  95.0647 265.1174 14.38619067243772
IRIDIUM 172             
1 43927U 19002F   23245.55996117  .00000026  00000+0  22249-5 0  9997
2 43927  86.3930  59.2806 0001996  91.5771 268.5653 14.34214314242966
IRIDIUM 175             
1 43928U 19002G   23245.52076478  .00000160  00000+0  21429-4 0  9991
2 43928  86.1497  48.8022 0002230  92.9771 267.1700 14.72244447249365
